{
  "type": "FeatureCollection",
  "features": [
    {
      "type": "Feature",
      "id": "relation/7910817",
      "properties": {
        "timestamp": "2026-01-18T20:03:57Z",
        "version": "23",
        "changeset": "177389752",
        "user": "Yan Bakhmat",
        "uid": "12495047",
        "admin_level": "5",
        "boundary": "administrative",
        "name": "Chennai",
        "name:kn": "ಚೆನ್ನೈ ಜಿಲ್ಲೆ",
        "name:ml": "ചെന്നൈ ജില്ല",
        "name:ta": "சென்னை மாவட்டம்",
        "name:uk": "Ченнаї",
        "name:ur": "ضلع چنئی",
        "official_name": "Chennai District",
        "old_name:uk": "Мадрас",
        "ref:LGD:district": "568",
        "type": "boundary",
        "wikidata": "Q15116",
        "wikipedia": "en:Chennai district",
        "id": "relation/7910817"
      },
      "geometry": {
        "type": "Polygon",
        "coordinates": [
          [
            [
              80.1821708,
              12.8677863
            ],
            [
              80.1851964,
              12.8662383
            ],
            [
              80.1893377,
              12.8641255
            ],
            [
              80.1920628,
              12.862954
            ],
            [
              80.1935649,
              12.8615106
            ],
            [
              80.1957536,
              12.8592931
            ],
            [
              80.1971698,
              12.8577241
            ],
            [
              80.1987147,
              12.8532682
            ],
            [
              80.1996374,
              12.8515737
            ],
            [
              80.2014613,
              12.8514482
            ],
            [
              80.2025127,
              12.8528707
            ],
            [
              80.2038646,
              12.8540841
            ],
            [
              80.2045512,
              12.855423
            ],
            [
              80.2048731,
              12.8570965
            ],
            [
              80.2050018,
              12.8588747
            ],
            [
              80.2057957,
              12.8651087
            ],
            [
              80.2072978,
              12.8682883
            ],
            [
              80.2083921,
              12.8707149
            ],
            [
              80.2097225,
              12.8736853
            ],
            [
              80.2113533,
              12.8752333
            ],
            [
              80.213027,
              12.8755261
            ],
            [
              80.2155375,
              12.8744593
            ],
            [
              80.2171683,
              12.87197
            ],
            [
              80.2176595,
              12.8707659
            ],
            [
              80.2181516,
              12.8695594
            ],
            [
              80.2178165,
              12.8689775
            ],
            [
              80.2186274,
              12.8683929
            ],
            [
              80.2192068,
              12.8658617
            ],
            [
              80.22161,
              12.8602763
            ],
            [
              80.224421,
              12.8561133
            ],
            [
              80.2255153,
              12.8545443
            ],
            [
              80.2283907,
              12.853059
            ],
            [
              80.2293077,
              12.8530009
            ],
            [
              80.2343344,
              12.8526824
            ],
            [
              80.2385187,
              12.8528707
            ],
            [
              80.2421665,
              12.852787
            ],
            [
              80.2422952,
              12.8550882
            ],
            [
              80.2426815,
              12.8569292
            ],
            [
              80.2440762,
              12.8580798
            ],
            [
              80.2461576,
              12.8583726
            ],
            [
              80.2494862,
              12.8586597
            ]
          ]
        ]
      }
    },
    {
      "type": "Feature",
      "id": "relation/10326119",
      "properties": {
        "timestamp": "2026-02-07T15:49:10Z",
        "version": "6",
        "changeset": "178233642",
        "user": "ChrissW-R1",
        "uid": "251543",
        "admin_level": "6",
        "boundary": "administrative",
        "name": "Sholinganallur",
        "ref:LGD:subdistrict": "5705",
        "type": "boundary",
        "wikidata": "Q16938718",
        "wikipedia": "en:Sholinganallur taluk",
        "id": "relation/10326119"
      },
      "geometry": {
        "type": "Polygon",
        "coordinates": [
          [
            [
              80.1821708,
              12.8677863
            ],
            [
              80.1851964,
              12.8662383
            ],
            [
              80.1893377,
              12.8641255
            ],
            [
              80.1920628,
              12.862954
            ],
            [
              80.1935649,
              12.8615106
            ],
            [
              80.1957536,
              12.8592931
            ],
            [
              80.1971698,
              12.8577241
            ],
            [
              80.1987147,
              12.8532682
            ],
            [
              80.1996374,
              12.8515737
            ],
            [
              80.2014613,
              12.8514482
            ],
            [
              80.2025127,
              12.8528707
            ],
            [
              80.2038646,
              12.8540841
            ],
            [
              80.2045512,
              12.855423
            ],
            [
              80.2048731,
              12.8570965
            ],
            [
              80.2050018,
              12.8588747
            ],
            [
              80.2057957,
              12.8651087
            ],
            [
              80.2072978,
              12.8682883
            ],
            [
              80.2083921,
              12.8707149
            ],
            [
              80.2097225,
              12.8736853
            ],
            [
              80.2113533,
              12.8752333
            ],
            [
              80.213027,
              12.8755261
            ],
            [
              80.2155375,
              12.8744593
            ],
            [
              80.2171683,
              12.87197
            ],
            [
              80.2176595,
              12.8707659
            ],
            [
              80.2181516,
              12.8695594
            ],
            [
              80.2178165,
              12.8689775
            ],
            [
              80.2186274,
              12.8683929
            ],
            [
              80.2192068,
              12.8658617
            ],
            [
              80.22161,
              12.8602763
            ],
            [
              80.224421,
              12.8561133
            ],
            [
              80.2255153,
              12.8545443
            ],
            [
              80.2283907,
              12.853059
            ],
            [
              80.2293077,
              12.8530009
            ],
            [
              80.2343344,
              12.8526824
            ],
            [
              80.2385187,
              12.8528707
            ],
            [
              80.2421665,
              12.852787
            ],
            [
              80.2422952,
              12.8550882
            ],
            [
              80.2426815,
              12.8569292
            ],
            [
              80.2440762,
              12.8580798
            ],
            [
              80.2461576,
              12.8583726
            ],
            [
              80.2494862,
              12.8586597
            ]
          ]
        ]
      }
    },
    {
      "type": "Feature",
      "id": "relation/10326415",
      "properties": {
        "timestamp": "2025-12-16T18:09:53Z",
        "version": "5",
        "changeset": "176018096",
        "user": "Olyon",
        "uid": "1443767",
        "admin_level": "6",
        "boundary": "administrative",
        "name": "Tiruporur",
        "ref:LGD:subdistrict": "5958",
        "type": "boundary",
        "wikidata": "Q30687161",
        "wikipedia": "en:Thiruporur taluk",
        "id": "relation/10326415"
      },
      "geometry": {
        "type": "Polygon",
        "coordinates": [
          [
            [
              80.1821708,
              12.8677863
            ],
            [
              80.1851964,
              12.8662383
            ],
            [
              80.1893377,
              12.8641255
            ],
            [
              80.1920628,
              12.862954
            ],
            [
              80.1935649,
              12.8615106
            ],
            [
              80.1957536,
              12.8592931
            ],
            [
              80.1971698,
              12.8577241
            ],
            [
              80.1987147,
              12.8532682
            ],
            [
              80.1996374,
              12.8515737
            ],
            [
              80.2014613,
              12.8514482
            ],
            [
              80.2025127,
              12.8528707
            ],
            [
              80.2038646,
              12.8540841
            ],
            [
              80.2045512,
              12.855423
            ],
            [
              80.2048731,
              12.8570965
            ],
            [
              80.2050018,
              12.8588747
            ],
            [
              80.2057957,
              12.8651087
            ],
            [
              80.2072978,
              12.8682883
            ],
            [
              80.2083921,
              12.8707149
            ],
            [
              80.2097225,
              12.8736853
            ],
            [
              80.2113533,
              12.8752333
            ],
            [
              80.213027,
              12.8755261
            ],
            [
              80.2155375,
              12.8744593
            ],
            [
              80.2171683,
              12.87197
            ],
            [
              80.2176595,
              12.8707659
            ],
            [
              80.2181516,
              12.8695594
            ],
            [
              80.2178165,
              12.8689775
            ],
            [
              80.2186274,
              12.8683929
            ],
            [
              80.2192068,
              12.8658617
            ],
            [
              80.22161,
              12.8602763
            ],
            [
              80.224421,
              12.8561133
            ],
            [
              80.2255153,
              12.8545443
            ],
            [
              80.2283907,
              12.853059
            ],
            [
              80.2293077,
              12.8530009
            ],
            [
              80.2343344,
              12.8526824
            ],
            [
              80.2385187,
              12.8528707
            ],
            [
              80.2421665,
              12.852787
            ],
            [
              80.2422952,
              12.8550882
            ],
            [
              80.2426815,
              12.8569292
            ],
            [
              80.2440762,
              12.8580798
            ],
            [
              80.2461576,
              12.8583726
            ],
            [
              80.2494862,
              12.8586597
            ]
          ]
        ]
      }
    },
    {
      "type": "Feature",
      "id": "relation/10329991",
      "properties": {
        "timestamp": "2025-12-16T18:41:25Z",
        "version": "13",
        "changeset": "176019175",
        "user": "Olyon",
        "uid": "1443767",
        "admin_level": "5",
        "boundary": "administrative",
        "name": "Chengalpattu",
        "name:kn": "ಚೆಂಗಾಲ್ಪಟ್ಟು ಜಿಲ್ಲೆ",
        "name:ta": "செங்கல்பட்டு மாவட்டம்",
        "official_name": "Chengalpattu District",
        "ref:LGD:district": "730",
        "type": "boundary",
        "wikidata": "Q65976177",
        "wikipedia": "en:Chengalpattu district",
        "id": "relation/10329991"
      },
      "geometry": {
        "type": "Polygon",
        "coordinates": [
          [
            [
              80.1821708,
              12.8677863
            ],
            [
              80.1851964,
              12.8662383
            ],
            [
              80.1893377,
              12.8641255
            ],
            [
              80.1920628,
              12.862954
            ],
            [
              80.1935649,
              12.8615106
            ],
            [
              80.1957536,
              12.8592931
            ],
            [
              80.1971698,
              12.8577241
            ],
            [
              80.1987147,
              12.8532682
            ],
            [
              80.1996374,
              12.8515737
            ],
            [
              80.2014613,
              12.8514482
            ],
            [
              80.2025127,
              12.8528707
            ],
            [
              80.2038646,
              12.8540841
            ],
            [
              80.2045512,
              12.855423
            ],
            [
              80.2048731,
              12.8570965
            ],
            [
              80.2050018,
              12.8588747
            ],
            [
              80.2057957,
              12.8651087
            ],
            [
              80.2072978,
              12.8682883
            ],
            [
              80.2083921,
              12.8707149
            ],
            [
              80.2097225,
              12.8736853
            ],
            [
              80.2113533,
              12.8752333
            ],
            [
              80.213027,
              12.8755261
            ],
            [
              80.2155375,
              12.8744593
            ],
            [
              80.2171683,
              12.87197
            ],
            [
              80.2176595,
              12.8707659
            ],
            [
              80.2181516,
              12.8695594
            ],
            [
              80.2178165,
              12.8689775
            ],
            [
              80.2186274,
              12.8683929
            ],
            [
              80.2192068,
              12.8658617
            ],
            [
              80.22161,
              12.8602763
            ],
            [
              80.224421,
              12.8561133
            ],
            [
              80.2255153,
              12.8545443
            ],
            [
              80.2283907,
              12.853059
            ],
            [
              80.2293077,
              12.8530009
            ],
            [
              80.2343344,
              12.8526824
            ],
            [
              80.2385187,
              12.8528707
            ],
            [
              80.2421665,
              12.852787
            ],
            [
              80.2422952,
              12.8550882
            ],
            [
              80.2426815,
              12.8569292
            ],
            [
              80.2440762,
              12.8580798
            ],
            [
              80.2461576,
              12.8583726
            ],
            [
              80.2494862,
              12.8586597
            ]
          ]
        ]
      }
    },
    {
      "type": "Feature",
      "id": "relation/14224203",
      "properties": {
        "timestamp": "2022-06-07T12:01:49Z",
        "version": "2",
        "changeset": "122069581",
        "user": "Crick_RN",
        "uid": "15458852",
        "building": "university",
        "type": "multipolygon",
        "id": "relation/14224203"
      },
      "geometry": {
        "type": "Polygon",
        "coordinates": [
          [
            [
              80.2196687,
              12.870584
            ],
            [
              80.2196429,
              12.8706054
            ],
            [
              80.2195644,
              12.8706207
            ],
            [
              80.2195727,
              12.8706697
            ],
            [
              80.2178856,
              12.8710156
            ],
            [
              80.2178833,
              12.8710056
            ],
            [
              80.2177928,
              12.8710226
            ],
            [
              80.2177374,
              12.8707711
            ],
            [
              80.2190138,
              12.8704985
            ],
            [
              80.2194196,
              12.8704118
            ],
            [
              80.2194323,
              12.8704698
            ]
          ]
        ]
      }
    },
    {
      "type": "Feature",
      "id": "relation/14231351",
      "properties": {
        "timestamp": "2026-02-01T06:13:55Z",
        "version": "4",
        "changeset": "177952047",
        "user": "Kanishka J P",
        "uid": "23772054",
        "building": "university",
        "name": "Lab Block 2",
        "type": "multipolygon",
        "id": "relation/14231351"
      },
      "geometry": {
        "type": "Polygon",
        "coordinates": [
          [
            [
              80.2202923,
              12.8691575
            ],
            [
              80.2202823,
              12.8691039
            ],
            [
              80.2202598,
              12.8689906
            ],
            [
              80.2209959,
              12.8688432
            ],
            [
              80.2210609,
              12.8691246
            ],
            [
              80.2204681,
              12.8692422
            ],
            [
              80.2203173,
              12.8692721
            ],
            [
              80.2202923,
              12.8691575
            ]
          ],
          [
            [
              80.2207253,
              12.8690693
            ],
            [
              80.2209797,
              12.8690174
            ],
            [
              80.2209684,
              12.8689687
            ],
            [
              80.2208414,
              12.8689938
            ],
            [
              80.2207143,
              12.8690188
            ],
            [
              80.2207253,
              12.8690693
            ]
          ],
          [
            [
              80.2203504,
              12.8691457
            ],
            [
              80.2206688,
              12.8690808
            ],
            [
              80.2206575,
              12.86903
            ],
            [
              80.2203395,
              12.8690926
            ],
            [
              80.2203504,
              12.8691457
            ]
          ]
        ]
      }
    },
    {
      "type": "Feature",
      "id": "relation/14231352",
      "properties": {
        "timestamp": "2026-04-18T10:57:01Z",
        "version": "3",
        "changeset": "181493048",
        "user": "syedjaferk",
        "uid": "19820049",
        "building": "university",
        "building:levels": "3",
        "name": "IT CSE Lab, St Joseph's Institute of Technology",
        "note": "Lab Area of St. Joseph's IT & CSE",
        "type": "multipolygon",
        "id": "relation/14231352"
      },
      "geometry": {
        "type": "Polygon",
        "coordinates": [
          [
            [
              80.2200001,
              12.8695957
            ],
            [
              80.219988,
              12.8695396
            ],
            [
              80.2199686,
              12.8694337
            ],
            [
              80.2210749,
              12.8692145
            ],
            [
              80.2211295,
              12.8694847
            ],
            [
              80.2200202,
              12.8697035
            ],
            [
              80.2200001,
              12.8695957
            ]
          ],
          [
            [
              80.2203619,
              12.8694662
            ],
            [
              80.2201546,
              12.8695069
            ],
            [
              80.2200498,
              12.8695275
            ],
            [
              80.220063,
              12.8695834
            ],
            [
              80.2203713,
              12.869523
            ],
            [
              80.2203619,
              12.8694662
            ]
          ],
          [
            [
              80.2208044,
              12.869438
            ],
            [
              80.2210609,
              12.8693878
            ],
            [
              80.2210465,
              12.8693318
            ],
            [
              80.2207943,
              12.8693813
            ],
            [
              80.2208044,
              12.869438
            ]
          ],
          [
            [
              80.2204326,
              12.8695109
            ],
            [
              80.2207419,
              12.8694503
            ],
            [
              80.2207305,
              12.8693938
            ],
            [
              80.2204208,
              12.8694546
            ],
            [
              80.2204326,
              12.8695109
            ]
          ]
        ]
      }
    },
    {
      "type": "Feature",
      "id": "relation/14231353",
      "properties": {
        "timestamp": "2026-06-13T08:40:55Z",
        "version": "7",
        "changeset": "184046403",
        "user": "Thiru Blue Star",
        "uid": "23820566",
        "building": "university",
        "name": "Classroom Block",
        "type": "multipolygon",
        "id": "relation/14231353"
      },
      "geometry": {
        "type": "Polygon",
        "coordinates": [
          [
            [
              80.2181595,
              12.8698929
            ],
            [
              80.2181331,
              12.8697782
            ],
            [
              80.2187128,
              12.8696674
            ],
            [
              80.2192925,
              12.8695566
            ],
            [
              80.219326,
              12.8697188
            ],
            [
              80.2193474,
              12.8698225
            ],
            [
              80.2181924,
              12.8700585
            ],
            [
              80.2181682,
              12.869954
            ],
            [
              80.2181595,
              12.8698929
            ]
          ],
          [
            [
              80.2188985,
              12.869749
            ],
            [
              80.2185255,
              12.8698215
            ],
            [
              80.2185379,
              12.8698806
            ],
            [
              80.2189089,
              12.8698073
            ],
            [
              80.2188985,
              12.869749
            ]
          ],
          [
            [
              80.218962,
              12.8697968
            ],
            [
              80.2192808,
              12.8697338
            ],
            [
              80.219266,
              12.8696775
            ],
            [
              80.2189496,
              12.8697391
            ],
            [
              80.218962,
              12.8697968
            ]
          ],
          [
            [
              80.2182273,
              12.8699419
            ],
            [
              80.2184825,
              12.8698915
            ],
            [
              80.2184728,
              12.8698318
            ],
            [
              80.2182146,
              12.869882
            ],
            [
              80.2182273,
              12.8699419
            ]
          ]
        ]
      }
    },
    {
      "type": "Feature",
      "id": "way/509668153",
      "properties": {
        "timestamp": "2026-06-13T08:40:55Z",
        "version": "9",
        "changeset": "184046403",
        "user": "Thiru Blue Star",
        "uid": "23820566",
        "amenity": "college",
        "internet_access": "wired",
        "name": "St Joseph's Institute of Technology",
        "operator": "Anna University",
        "phone": "044 2450 3132",
        "website": "https://stjosephstechnology.ac.in/web/index.html",
        "id": "way/509668153"
      },
      "geometry": {
        "type": "Polygon",
        "coordinates": [
          [
            [
              80.2179847,
              12.8703574
            ],
            [
              80.2173935,
              12.8704819
            ],
            [
              80.2174495,
              12.8703753
            ],
            [
              80.2174824,
              12.8702794
            ],
            [
              80.21749,
              12.8702573
            ],
            [
              80.2175063,
              12.8701727
            ],
            [
              80.2174981,
              12.8700362
            ],
            [
              80.2174868,
              12.8698998
            ],
            [
              80.2175113,
              12.8697621
            ],
            [
              80.2175736,
              12.8695876
            ],
            [
              80.2176492,
              12.8694282
            ],
            [
              80.2177854,
              12.8691803
            ],
            [
              80.2177659,
              12.8688908
            ],
            [
              80.2176959,
              12.8687619
            ],
            [
              80.2176118,
              12.8686547
            ],
            [
              80.2175177,
              12.8685931
            ],
            [
              80.2173704,
              12.8685324
            ],
            [
              80.2172416,
              12.8684712
            ],
            [
              80.2171272,
              12.8683854
            ],
            [
              80.2170355,
              12.8682899
            ],
            [
              80.2169534,
              12.8681283
            ],
            [
              80.2169172,
              12.8680065
            ],
            [
              80.2167912,
              12.8674212
            ],
            [
              80.2166784,
              12.8673723
            ],
            [
              80.2164808,
              12.8664653
            ],
            [
              80.2162378,
              12.8665139
            ],
            [
              80.2161159,
              12.8659692
            ],
            [
              80.2145619,
              12.8663069
            ],
            [
              80.2144772,
              12.8658962
            ],
            [
              80.2157279,
              12.8656828
            ],
            [
              80.2156703,
              12.8653987
            ],
            [
              80.2147566,
              12.8654668
            ],
            [
              80.2147075,
              12.8643969
            ],
            [
              80.2165697,
              12.8642337
            ],
            [
              80.2165717,
              12.8636831
            ],
            [
              80.2168332,
              12.8636804
            ],
            [
              80.217216,
              12.8649142
            ],
            [
              80.217512,
              12.8662714
            ],
            [
              80.2172946,
              12.8662749
            ],
            [
              80.2165584,
              12.8662868
            ],
            [
              80.216674,
              12.8668463
            ],
            [
              80.2171434,
              12.8667598
            ],
            [
              80.2171737,
              12.8668554
            ],
            [
              80.2181357,
              12.8667696
            ],
            [
              80.2180856,
              12.8676021
            ],
            [
              80.218912,
              12.8674296
            ],
            [
              80.2189683,
              12.8676517
            ],
            [
              80.2194505,
              12.867545
            ],
            [
              80.2196436,
              12.8683351
            ],
            [
              80.2197816,
              12.8683058
            ],
            [
              80.2197986,
              12.8683975
            ],
            [
              80.2201023,
              12.8684531
            ],
            [
              80.2200855,
              12.8685445
            ],
            [
              80.2212194,
              12.8688026
            ],
            [
              80.2213977,
              12.8696753
            ],
            [
              80.220111,
              12.8699247
            ],
            [
              80.2195404,
              12.8700401
            ],
            [
              80.2185914,
              12.8702351
            ],
            [
              80.2179847,
              12.8703574
            ]
          ]
        ]
      }
    },
    {
      "type": "Feature",
      "id": "way/540117491",
      "properties": {
        "timestamp": "2026-07-31T22:09:12Z",
        "version": "11",
        "changeset": "186732857",
        "user": "Flynn Marquardt",
        "uid": "100357",
        "addr:city": "Chennai",
        "addr:country": "IN",
        "addr:postcode": "600119",
        "addr:state": "Tamil Nadu",
        "amenity": "college",
        "email": "jprstjosephs@stjosephs.ac.in",
        "name": "St. Joseph's College of Engineering",
        "start_date": "1994",
        "website": "https://www.stjosephs.ac.in/;https://stjosephs.ac.in/index.html",
        "wheelchair": "limited",
        "wikidata": "Q7589148",
        "wikipedia": "en:St. Joseph's College of Engineering",
        "id": "way/540117491"
      },
      "geometry": {
        "type": "Polygon",
        "coordinates": [
          [
            [
              80.2118959,
              12.8660392
            ],
            [
              80.2138698,
              12.8656143
            ],
            [
              80.2139675,
              12.8659998
            ],
            [
              80.2144772,
              12.8658962
            ],
            [
              80.2145619,
              12.8663069
            ],
            [
              80.2161159,
              12.8659692
            ],
            [
              80.2162378,
              12.8665139
            ],
            [
              80.2164808,
              12.8664653
            ],
            [
              80.2166784,
              12.8673723
            ],
            [
              80.2167912,
              12.8674212
            ],
            [
              80.2169172,
              12.8680065
            ],
            [
              80.2169534,
              12.8681283
            ],
            [
              80.2170355,
              12.8682899
            ],
            [
              80.2171272,
              12.8683854
            ],
            [
              80.2172416,
              12.8684712
            ],
            [
              80.2173704,
              12.8685324
            ],
            [
              80.2175177,
              12.8685931
            ],
            [
              80.2176118,
              12.8686547
            ],
            [
              80.2176959,
              12.8687619
            ],
            [
              80.2177659,
              12.8688908
            ],
            [
              80.2177854,
              12.8691803
            ],
            [
              80.2176492,
              12.8694282
            ],
            [
              80.2175736,
              12.8695876
            ],
            [
              80.2175113,
              12.8697621
            ],
            [
              80.2174868,
              12.8698998
            ],
            [
              80.2174981,
              12.8700362
            ],
            [
              80.2175063,
              12.8701727
            ],
            [
              80.2174824,
              12.8702794
            ],
            [
              80.2174495,
              12.8703753
            ],
            [
              80.2173935,
              12.8704819
            ],
            [
              80.2174629,
              12.8708647
            ],
            [
              80.2175908,
              12.8708655
            ],
            [
              80.2172777,
              12.8716111
            ],
            [
              80.2168718,
              12.8718317
            ],
            [
              80.2161471,
              12.8721768
            ],
            [
              80.2161164,
              12.8720613
            ],
            [
              80.2153508,
              12.8722156
            ],
            [
              80.2133015,
              12.8726379
            ],
            [
              80.212645,
              12.8703858
            ],
            [
              80.2124236,
              12.8704286
            ],
            [
              80.2121852,
              12.8695174
            ],
            [
              80.2121523,
              12.8693855
            ],
            [
              80.2125949,
              12.8693039
            ],
            [
              80.2118959,
              12.8660392
            ]
          ]
        ]
      }
    },
    {
      "type": "Feature",
      "id": "way/1067160159",
      "properties": {
        "timestamp": "2022-06-06T12:03:11Z",
        "version": "1",
        "changeset": "122021831",
        "user": "vaibhavnz",
        "uid": "4164103",
        "building": "yes",
        "id": "way/1067160159"
      },
      "geometry": {
        "type": "Polygon",
        "coordinates": [
          [
            [
              80.2194945,
              12.8704156
            ],
            [
              80.2194783,
              12.8703487
            ],
            [
              80.2196459,
              12.8703102
            ],
            [
              80.219662,
              12.8703771
            ],
            [
              80.2194945,
              12.8704156
            ]
          ]
        ]
      }
    },
    {
      "type": "Feature",
      "id": "way/1067160161",
      "properties": {
        "timestamp": "2026-06-13T08:40:55Z",
        "version": "2",
        "changeset": "184046403",
        "user": "Thiru Blue Star",
        "uid": "23820566",
        "building": "university",
        "image": "https://www.sathyabama.ac.in/sites/default/files/inline-images/DSC_0495%20%281%29.JPG",
        "name": "Department of Fashion Design",
        "id": "way/1067160161"
      },
      "geometry": {
        "type": "Polygon",
        "coordinates": [
          [
            [
              80.2201442,
              12.8702004
            ],
            [
              80.2203337,
              12.8701585
            ],
            [
              80.2203662,
              12.8702913
            ],
            [
              80.2203494,
              12.8703495
            ],
            [
              80.2204144,
              12.8704005
            ],
            [
              80.2205181,
              12.8702586
            ],
            [
              80.2206322,
              12.8703219
            ],
            [
              80.220573,
              12.8704155
            ],
            [
              80.2206596,
              12.8704706
            ],
            [
              80.2206977,
              12.870645
            ],
            [
              80.220643,
              12.8707286
            ],
            [
              80.2207305,
              12.8707873
            ],
            [
              80.2206577,
              12.8709013
            ],
            [
              80.2205064,
              12.8708008
            ],
            [
              80.2204656,
              12.8708565
            ],
            [
              80.2203336,
              12.8708801
            ],
            [
              80.2202866,
              12.8708531
            ],
            [
              80.2201825,
              12.8710031
            ],
            [
              80.2201238,
              12.8709659
            ],
            [
              80.2200992,
              12.8710031
            ],
            [
              80.2200428,
              12.8709706
            ],
            [
              80.2201728,
              12.870776
            ],
            [
              80.2201061,
              12.8707301
            ],
            [
              80.2200873,
              12.8706249
            ],
            [
              80.2201386,
              12.8705575
            ],
            [
              80.2199946,
              12.8704617
            ],
            [
              80.2200619,
              12.8703585
            ],
            [
              80.2202003,
              12.8704429
            ],
            [
              80.2202304,
              12.8703972
            ],
            [
              80.2201774,
              12.8703421
            ],
            [
              80.2201442,
              12.8702004
            ]
          ]
        ]
      }
    },
    {
      "type": "Feature",
      "id": "way/1067160165",
      "properties": {
        "timestamp": "2022-06-06T12:03:11Z",
        "version": "1",
        "changeset": "122021831",
        "user": "vaibhavnz",
        "uid": "4164103",
        "building": "yes",
        "id": "way/1067160165"
      },
      "geometry": {
        "type": "Polygon",
        "coordinates": [
          [
            [
              80.2207177,
              12.8703598
            ],
            [
              80.2206241,
              12.8702986
            ],
            [
              80.2206384,
              12.8702754
            ],
            [
              80.2206082,
              12.8702538
            ],
            [
              80.2206352,
              12.870212
            ],
            [
              80.2206709,
              12.8702321
            ],
            [
              80.2206916,
              12.8701996
            ],
            [
              80.2207876,
              12.8702576
            ],
            [
              80.2207685,
              12.8702894
            ],
            [
              80.2208043,
              12.8703133
            ],
            [
              80.2207574,
              12.8703799
            ],
            [
              80.220736,
              12.8703899
            ],
            [
              80.2207201,
              12.8703907
            ],
            [
              80.2207019,
              12.8703861
            ],
            [
              80.2207177,
              12.8703598
            ]
          ]
        ]
      }
    },
    {
      "type": "Feature",
      "id": "way/1067160183",
      "properties": {
        "timestamp": "2026-07-25T13:53:09Z",
        "version": "9",
        "changeset": "186347808",
        "user": "Hash_96",
        "uid": "24054998",
        "alt_name": "Sathyabama University;SIST",
        "amenity": "university",
        "internet_access": "yes",
        "name": "Sathyabama Institute of Science and Technology",
        "name:ta": "சத்யபாமா ப‌ல்கலைக்கழகம்",
        "name:te": "సత్యభామ విశ్వవిద్యాలయం",
        "short_name": "SIST",
        "website": "https://www.sathyabama.ac.in/",
        "wikidata": "Q7426174",
        "wikimedia_commons": "Category:Sathyabama University",
        "wikipedia": "en:Sathyabama Institute of Science and Technology",
        "id": "way/1067160183"
      },
      "geometry": {
        "type": "Polygon",
        "coordinates": [
          [
            [
              80.224253,
              12.869451
            ],
            [
              80.2244605,
              12.8699421
            ],
            [
              80.2247295,
              12.8705789
            ],
            [
              80.226329,
              12.8703742
            ],
            [
              80.2263541,
              12.8705927
            ],
            [
              80.2260176,
              12.8706259
            ],
            [
              80.2260657,
              12.8709098
            ],
            [
              80.2260776,
              12.8712805
            ],
            [
              80.2263748,
              12.8712859
            ],
            [
              80.226404,
              12.8716912
            ],
            [
              80.2261232,
              12.8716912
            ],
            [
              80.2261381,
              12.8722562
            ],
            [
              80.2263761,
              12.8722562
            ],
            [
              80.2263782,
              12.8723028
            ],
            [
              80.2263817,
              12.8723814
            ],
            [
              80.2263815,
              12.872386
            ],
            [
              80.226146,
              12.872659
            ],
            [
              80.2261886,
              12.8731054
            ],
            [
              80.2260902,
              12.8731163
            ],
            [
              80.2256534,
              12.8731624
            ],
            [
              80.2253663,
              12.8731951
            ],
            [
              80.2249672,
              12.8732321
            ],
            [
              80.2249479,
              12.8735614
            ],
            [
              80.224134,
              12.8735885
            ],
            [
              80.2240182,
              12.8736814
            ],
            [
              80.2233838,
              12.8737742
            ],
            [
              80.2229992,
              12.8739496
            ],
            [
              80.2221496,
              12.8741567
            ],
            [
              80.2221035,
              12.8741679
            ],
            [
              80.2224816,
              12.8752172
            ],
            [
              80.2211,
              12.875509
            ],
            [
              80.2204913,
              12.8756375
            ],
            [
              80.2208382,
              12.8771181
            ],
            [
              80.2206293,
              12.8771691
            ],
            [
              80.2206795,
              12.8774237
            ],
            [
              80.2200787,
              12.877566
            ],
            [
              80.2196493,
              12.8756917
            ],
            [
              80.2195143,
              12.8757218
            ],
            [
              80.2181428,
              12.8760165
            ],
            [
              80.2178946,
              12.8748528
            ],
            [
              80.2163612,
              12.8751732
            ],
            [
              80.2163302,
              12.8750347
            ],
            [
              80.2162476,
              12.874665
            ],
            [
              80.2158391,
              12.8747476
            ],
            [
              80.2157323,
              12.8742587
            ],
            [
              80.2155559,
              12.874297
            ],
            [
              80.2155116,
              12.8740998
            ],
            [
              80.2150091,
              12.874217
            ],
            [
              80.2147252,
              12.8741229
            ],
            [
              80.2146525,
              12.8737972
            ],
            [
              80.2148064,
              12.873434
            ],
            [
              80.2152442,
              12.8733313
            ],
            [
              80.2152963,
              12.8731737
            ],
            [
              80.2151942,
              12.8726863
            ],
            [
              80.2154423,
              12.8726335
            ],
            [
              80.2153508,
              12.8722156
            ],
            [
              80.2161164,
              12.8720613
            ],
            [
              80.2161471,
              12.8721768
            ],
            [
              80.2168718,
              12.8718317
            ],
            [
              80.2172777,
              12.8716111
            ],
            [
              80.2175908,
              12.8708655
            ],
            [
              80.2176595,
              12.8707659
            ],
            [
              80.2183236,
              12.8706218
            ],
            [
              80.2188996,
              12.8704888
            ],
            [
              80.2189951,
              12.8704561
            ],
            [
              80.218994,
              12.8704297
            ],
            [
              80.2192475,
              12.8703648
            ],
            [
              80.2194783,
              12.8703487
            ],
            [
              80.2196459,
              12.8703102
            ],
            [
              80.2201442,
              12.8702004
            ],
            [
              80.2203337,
              12.8701585
            ],
            [
              80.2207676,
              12.8700618
            ],
            [
              80.2211313,
              12.8699948
            ],
            [
              80.2216943,
              12.8698909
            ],
            [
              80.2231372,
              12.8696354
            ],
            [
              80.224253,
              12.869451
            ]
          ]
        ]
      }
    },
    {
      "type": "Feature",
      "id": "way/1067160260",
      "properties": {
        "timestamp": "2024-04-09T07:50:49Z",
        "version": "3",
        "changeset": "149763580",
        "user": "Bharathan Bhuvanesh",
        "uid": "21289535",
        "natural": "wetland",
        "wetland": "marsh",
        "id": "way/1067160260"
      },
      "geometry": {
        "type": "Polygon",
        "coordinates": [
          [
            [
              80.2244605,
              12.8699421
            ],
            [
              80.2226486,
              12.8702498
            ],
            [
              80.2227852,
              12.8709604
            ],
            [
              80.2226593,
              12.8709845
            ],
            [
              80.2219344,
              12.8711233
            ],
            [
              80.22115,
              12.8712735
            ],
            [
              80.2210853,
              12.8710877
            ],
            [
              80.2210241,
              12.8709529
            ],
            [
              80.2209944,
              12.8708319
            ],
            [
              80.2209554,
              12.8705668
            ],
            [
              80.2209092,
              12.8703944
            ],
            [
              80.2209233,
              12.8703356
            ],
            [
              80.2209796,
              12.870273
            ],
            [
              80.2210479,
              12.8702063
            ],
            [
              80.2211127,
              12.8701211
            ],
            [
              80.2211339,
              12.8700668
            ],
            [
              80.2211313,
              12.8699948
            ],
            [
              80.2216943,
              12.8698909
            ],
            [
              80.2231372,
              12.8696354
            ],
            [
              80.224253,
              12.869451
            ],
            [
              80.2244605,
              12.8699421
            ]
          ]
        ]
      }
    },
    {
      "type": "Feature",
      "id": "way/1067566332",
      "properties": {
        "timestamp": "2022-06-07T11:26:10Z",
        "version": "1",
        "changeset": "122067843",
        "user": "user_14062769",
        "uid": "14062769",
        "building": "yes",
        "source": "microsoft/BuildingFootprints",
        "id": "way/1067566332"
      },
      "geometry": {
        "type": "Polygon",
        "coordinates": [
          [
            [
              80.2182356,
              12.8675777
            ],
            [
              80.2186448,
              12.8675145
            ],
            [
              80.2186734,
              12.8676905
            ],
            [
              80.2182642,
              12.8677537
            ],
            [
              80.2182356,
              12.8675777
            ]
          ]
        ]
      }
    },
    {
      "type": "Feature",
      "id": "way/1067904862",
      "properties": {
        "timestamp": "2025-12-02T10:20:22Z",
        "version": "6",
        "changeset": "175395461",
        "user": "shimshaola",
        "uid": "22355702",
        "amenity": "college",
        "name": "Jeppiaar Engineering College",
        "name:ml": "ஜேப்பியார் பொறியியல் கல்லூரி",
        "website": "https://jeppiaarcollege.org/jeppiaar/",
        "wikidata": "Q6180452",
        "wikipedia": "en:Jeppiaar Engineering College",
        "id": "way/1067904862"
      },
      "geometry": {
        "type": "Polygon",
        "coordinates": [
          [
            [
              80.223821,
              12.8656594
            ],
            [
              80.2240172,
              12.8657904
            ],
            [
              80.223958,
              12.8659051
            ],
            [
              80.2239765,
              12.8664138
            ],
            [
              80.2241381,
              12.8678261
            ],
            [
              80.2244013,
              12.8689565
            ],
            [
              80.2235967,
              12.8692101
            ],
            [
              80.2229932,
              12.8693539
            ],
            [
              80.2220937,
              12.869559
            ],
            [
              80.2215471,
              12.869648
            ],
            [
              80.2214464,
              12.8696663
            ],
            [
              80.2213977,
              12.8696753
            ],
            [
              80.2212194,
              12.8688026
            ],
            [
              80.2200855,
              12.8685445
            ],
            [
              80.2201023,
              12.8684531
            ],
            [
              80.2197986,
              12.8683975
            ],
            [
              80.2197816,
              12.8683058
            ],
            [
              80.2196436,
              12.8683351
            ],
            [
              80.2194505,
              12.867545
            ],
            [
              80.2189683,
              12.8676517
            ],
            [
              80.218912,
              12.8674296
            ],
            [
              80.2180856,
              12.8676021
            ],
            [
              80.2181357,
              12.8667696
            ],
            [
              80.2171737,
              12.8668554
            ],
            [
              80.2171434,
              12.8667598
            ],
            [
              80.216674,
              12.8668463
            ],
            [
              80.2165584,
              12.8662868
            ],
            [
              80.2172946,
              12.8662749
            ],
            [
              80.217512,
              12.8662714
            ],
            [
              80.217216,
              12.8649142
            ],
            [
              80.2168332,
              12.8636804
            ],
            [
              80.2167437,
              12.8633791
            ],
            [
              80.2171706,
              12.8632761
            ],
            [
              80.2172966,
              12.8636724
            ],
            [
              80.219057,
              12.8632768
            ],
            [
              80.220184,
              12.86304
            ],
            [
              80.2203392,
              12.8630061
            ],
            [
              80.2204386,
              12.8634822
            ],
            [
              80.2208543,
              12.8633921
            ],
            [
              80.2208235,
              12.8632545
            ],
            [
              80.2210075,
              12.8632154
            ],
            [
              80.2210382,
              12.863353
            ],
            [
              80.2212587,
              12.863558
            ],
            [
              80.2215733,
              12.8651199
            ],
            [
              80.2216068,
              12.8651135
            ],
            [
              80.2216425,
              12.8652914
            ],
            [
              80.2219724,
              12.8652479
            ],
            [
              80.22249,
              12.8652089
            ],
            [
              80.2228998,
              12.8652028
            ],
            [
              80.2228535,
              12.8659177
            ],
            [
              80.2236053,
              12.8657976
            ],
            [
              80.2236084,
              12.8656955
            ],
            [
              80.223821,
              12.8656594
            ]
          ]
        ]
      }
    },
    {
      "type": "Feature",
      "id": "way/1067922692",
      "properties": {
        "timestamp": "2026-06-13T08:40:55Z",
        "version": "3",
        "changeset": "184046403",
        "user": "Thiru Blue Star",
        "uid": "23820566",
        "building": "dormitory",
        "name": "Girls Hostel",
        "id": "way/1067922692"
      },
      "geometry": {
        "type": "Polygon",
        "coordinates": [
          [
            [
              80.2178065,
              12.8681632
            ],
            [
              80.2186627,
              12.8684125
            ],
            [
              80.2186506,
              12.868589
            ],
            [
              80.2179158,
              12.8687391
            ],
            [
              80.2178065,
              12.8681632
            ]
          ]
        ]
      }
    },
    {
      "type": "Feature",
      "id": "way/1067922693",
      "properties": {
        "timestamp": "2026-02-01T06:13:55Z",
        "version": "2",
        "changeset": "177952047",
        "user": "Kanishka J P",
        "uid": "23772054",
        "building": "university",
        "name": "Mess",
        "id": "way/1067922693"
      },
      "geometry": {
        "type": "Polygon",
        "coordinates": [
          [
            [
              80.2179089,
              12.8688085
            ],
            [
              80.2189087,
              12.8686136
            ],
            [
              80.2190212,
              12.8691838
            ],
            [
              80.2180214,
              12.8693787
            ],
            [
              80.2179089,
              12.8688085
            ]
          ]
        ]
      }
    },
    {
      "type": "Feature",
      "id": "way/1067922694",
      "properties": {
        "timestamp": "2022-06-08T14:38:19Z",
        "version": "1",
        "changeset": "122121812",
        "user": "vaibhavnz",
        "uid": "4164103",
        "building": "university",
        "id": "way/1067922694"
      },
      "geometry": {
        "type": "Polygon",
        "coordinates": [
          [
            [
              80.2200855,
              12.8685445
            ],
            [
              80.2197759,
              12.8684943
            ],
            [
              80.2197802,
              12.8684845
            ],
            [
              80.2196697,
              12.8684719
            ],
            [
              80.2196436,
              12.8683351
            ],
            [
              80.2197816,
              12.8683058
            ],
            [
              80.2197986,
              12.8683975
            ],
            [
              80.2201023,
              12.8684531
            ],
            [
              80.2200855,
              12.8685445
            ]
          ]
        ]
      }
    },
    {
      "type": "Feature",
      "id": "way/1067922695",
      "properties": {
        "timestamp": "2026-06-13T08:40:55Z",
        "version": "3",
        "changeset": "184046403",
        "user": "Thiru Blue Star",
        "uid": "23820566",
        "building": "dormitory",
        "name": "Boys Hostel",
        "id": "way/1067922695"
      },
      "geometry": {
        "type": "Polygon",
        "coordinates": [
          [
            [
              80.2191875,
              12.8685705
            ],
            [
              80.2204151,
              12.868683
            ],
            [
              80.2204797,
              12.8686921
            ],
            [
              80.220512,
              12.8687159
            ],
            [
              80.2205293,
              12.8687642
            ],
            [
              80.2205336,
              12.8688244
            ],
            [
              80.2205242,
              12.8688517
            ],
            [
              80.2204876,
              12.8688755
            ],
            [
              80.2204079,
              12.8688944
            ],
            [
              80.219866,
              12.8689902
            ],
            [
              80.2198498,
              12.8688997
            ],
            [
              80.2192747,
              12.8690045
            ],
            [
              80.2191875,
              12.8685705
            ]
          ]
        ]
      }
    },
    {
      "type": "Feature",
      "id": "way/1067922696",
      "properties": {
        "timestamp": "2026-04-18T11:20:22Z",
        "version": "3",
        "changeset": "181493827",
        "user": "syedjaferk",
        "uid": "19820049",
        "building": "university",
        "building:levels": "4",
        "name": "Admin Block and Placement Office",
        "id": "way/1067922696"
      },
      "geometry": {
        "type": "Polygon",
        "coordinates": [
          [
            [
              80.2193213,
              12.8690759
            ],
            [
              80.2197679,
              12.8689925
            ],
            [
              80.219767,
              12.8689824
            ],
            [
              80.21982,
              12.8689731
            ],
            [
              80.2198427,
              12.869071
            ],
            [
              80.2197925,
              12.8690802
            ],
            [
              80.2198886,
              12.8695635
            ],
            [
              80.2194375,
              12.8696513
            ],
            [
              80.2193213,
              12.8690759
            ]
          ]
        ]
      }
    },
    {
      "type": "Feature",
      "id": "way/1067922697",
      "properties": {
        "timestamp": "2022-06-08T14:38:19Z",
        "version": "1",
        "changeset": "122121812",
        "user": "vaibhavnz",
        "uid": "4164103",
        "building": "university",
        "id": "way/1067922697"
      },
      "geometry": {
        "type": "Polygon",
        "coordinates": [
          [
            [
              80.2210988,
              12.8689617
            ],
            [
              80.2212153,
              12.8689367
            ],
            [
              80.2212427,
              12.8690752
            ],
            [
              80.2211272,
              12.8690983
            ],
            [
              80.2210988,
              12.8689617
            ]
          ]
        ]
      }
    },
    {
      "type": "Feature",
      "id": "way/1131919642",
      "properties": {
        "timestamp": "2023-01-14T09:10:59Z",
        "version": "1",
        "changeset": "131256807",
        "user": "Ti_Ru",
        "uid": "7575709",
        "natural": "wetland",
        "wetland": "marsh",
        "id": "way/1131919642"
      },
      "geometry": {
        "type": "Polygon",
        "coordinates": [
          [
            [
              80.2249263,
              12.8702123
            ],
            [
              80.2245222,
              12.8691766
            ],
            [
              80.2244677,
              12.8690482
            ],
            [
              80.224226,
              12.8689855
            ],
            [
              80.2235511,
              12.8692018
            ],
            [
              80.2221552,
              12.8695118
            ],
            [
              80.2214896,
              12.8696038
            ],
            [
              80.2212122,
              12.8683132
            ],
            [
              80.2212899,
              12.8682429
            ],
            [
              80.2213675,
              12.8682393
            ],
            [
              80.2214396,
              12.8685349
            ],
            [
              80.2219019,
              12.8684339
            ],
            [
              80.2218723,
              12.8682771
            ],
            [
              80.2219758,
              12.8682627
            ],
            [
              80.2220331,
              12.8682934
            ],
            [
              80.22212,
              12.8682879
            ],
            [
              80.2221792,
              12.8682303
            ],
            [
              80.2221459,
              12.8680933
            ],
            [
              80.2221977,
              12.8680825
            ],
            [
              80.2222827,
              12.8684718
            ],
            [
              80.2235571,
              12.8682326
            ],
            [
              80.2239945,
              12.8682194
            ],
            [
              80.2240315,
              12.8682522
            ],
            [
              80.2242537,
              12.8681998
            ],
            [
              80.2247416,
              12.8693086
            ],
            [
              80.2250411,
              12.8697974
            ],
            [
              80.2252969,
              12.8698237
            ],
            [
              80.2253204,
              12.8701124
            ],
            [
              80.2249263,
              12.8702123
            ]
          ]
        ]
      }
    },
    {
      "type": "Feature",
      "id": "way/1271091595",
      "properties": {
        "timestamp": "2026-06-13T08:40:55Z",
        "version": "2",
        "changeset": "184046403",
        "user": "Thiru Blue Star",
        "uid": "23820566",
        "building": "yes",
        "id": "way/1271091595"
      },
      "geometry": {
        "type": "Polygon",
        "coordinates": [
          [
            [
              80.2197923,
              12.8710704
            ],
            [
              80.219648,
              12.8703993
            ],
            [
              80.2198414,
              12.8703597
            ],
            [
              80.2199859,
              12.8710309
            ],
            [
              80.2197923,
              12.8710704
            ]
          ]
        ]
      }
    },
    {
      "type": "Feature",
      "id": "way/1500711220",
      "properties": {
        "timestamp": "2026-04-18T10:59:57Z",
        "version": "1",
        "changeset": "181493141",
        "user": "syedjaferk",
        "uid": "19820049",
        "landuse": "commercial",
        "name": "St. Joseph's Institute of Technology Bus Bay",
        "id": "way/1500711220"
      },
      "geometry": {
        "type": "Polygon",
        "coordinates": [
          [
            [
              80.2191453,
              12.8683586
            ],
            [
              80.2190055,
              12.8676895
            ],
            [
              80.2194248,
              12.867597
            ],
            [
              80.2195845,
              12.8684364
            ],
            [
              80.2191453,
              12.8683586
            ]
          ]
        ]
      }
    },
    {
      "type": "Feature",
      "id": "way/34618653",
      "properties": {
        "timestamp": "2026-07-25T13:53:09Z",
        "version": "15",
        "changeset": "186347808",
        "user": "Hash_96",
        "uid": "24054998",
        "access": "private",
        "highway": "service",
        "oneway": "yes",
        "surface": "cement",
        "id": "way/34618653"
      },
      "geometry": {
        "type": "LineString",
        "coordinates": [
          [
            80.2264155,
            12.8701747
          ],
          [
            80.2260736,
            12.8702157
          ],
          [
            80.2257079,
            12.8702595
          ],
          [
            80.2254537,
            12.87029
          ],
          [
            80.2249239,
            12.8703331
          ],
          [
            80.2248904,
            12.8703226
          ],
          [
            80.2248609,
            12.8702945
          ],
          [
            80.224824,
            12.8702082
          ],
          [
            80.2246396,
            12.8697082
          ],
          [
            80.2245216,
            12.8694179
          ],
          [
            80.2244867,
            12.8693525
          ],
          [
            80.2244492,
            12.8693081
          ],
          [
            80.2244049,
            12.8692833
          ],
          [
            80.2243486,
            12.8692754
          ],
          [
            80.224244,
            12.8692833
          ],
          [
            80.2240925,
            12.8693094
          ],
          [
            80.2214598,
            12.8697149
          ],
          [
            80.2211525,
            12.8697562
          ],
          [
            80.2209572,
            12.8697978
          ],
          [
            80.2200355,
            12.8699941
          ],
          [
            80.2197426,
            12.870047
          ],
          [
            80.2188475,
            12.8702188
          ],
          [
            80.2180327,
            12.870378
          ],
          [
            80.2176572,
            12.8704497
          ],
          [
            80.2176203,
            12.8704543
          ],
          [
            80.217313,
            12.8704927
          ]
        ]
      }
    },
    {
      "type": "Feature",
      "id": "way/384392740",
      "properties": {
        "timestamp": "2024-12-11T18:31:42Z",
        "version": "8",
        "changeset": "160179943",
        "user": "shalom2604",
        "uid": "22271772",
        "access": "private",
        "highway": "service",
        "id": "way/384392740"
      },
      "geometry": {
        "type": "LineString",
        "coordinates": [
          [
            80.2166906,
            12.8674157
          ],
          [
            80.2168369,
            12.8680152
          ],
          [
            80.2169348,
            12.8682309
          ],
          [
            80.2169702,
            12.8683088
          ],
          [
            80.2171552,
            12.8685017
          ],
          [
            80.217409,
            12.8686023
          ],
          [
            80.2176197,
            12.8687533
          ],
          [
            80.2176878,
            12.8689346
          ],
          [
            80.2177273,
            12.8690887
          ],
          [
            80.2176971,
            12.8692019
          ],
          [
            80.217495,
            12.8695961
          ],
          [
            80.2174176,
            12.8698351
          ],
          [
            80.2174305,
            12.8700532
          ],
          [
            80.2174434,
            12.8701999
          ],
          [
            80.2174368,
            12.8702339
          ],
          [
            80.2173627,
            12.8704116
          ],
          [
            80.217313,
            12.8704927
          ]
        ]
      }
    },
    {
      "type": "Feature",
      "id": "way/832117255",
      "properties": {
        "timestamp": "2026-07-25T13:53:09Z",
        "version": "7",
        "changeset": "186347808",
        "user": "Hash_96",
        "uid": "24054998",
        "access": "private",
        "highway": "service",
        "oneway": "yes",
        "source": "digitalglobe",
        "surface": "concrete",
        "id": "way/832117255"
      },
      "geometry": {
        "type": "LineString",
        "coordinates": [
          [
            80.2174145,
            12.8709622
          ],
          [
            80.2176109,
            12.8707018
          ],
          [
            80.2176391,
            12.8706547
          ],
          [
            80.217692,
            12.8706175
          ],
          [
            80.2177403,
            12.8706011
          ],
          [
            80.2178818,
            12.8705697
          ],
          [
            80.2181891,
            12.8705143
          ],
          [
            80.2184397,
            12.8704691
          ],
          [
            80.2198639,
            12.8701788
          ],
          [
            80.2209995,
            12.8699707
          ],
          [
            80.2228466,
            12.8696323
          ],
          [
            80.2239034,
            12.8694545
          ],
          [
            80.2242172,
            12.8694048
          ],
          [
            80.2243064,
            12.8694081
          ],
          [
            80.2243553,
            12.8694205
          ],
          [
            80.2244069,
            12.8694611
          ],
          [
            80.2244546,
            12.8695591
          ],
          [
            80.2247335,
            12.8702703
          ],
          [
            80.2247751,
            12.8703632
          ],
          [
            80.224826,
            12.8704259
          ],
          [
            80.2248931,
            12.8704625
          ],
          [
            80.224987,
            12.8704691
          ],
          [
            80.2257209,
            12.8703818
          ],
          [
            80.2260872,
            12.8703382
          ],
          [
            80.2264275,
            12.870296
          ]
        ]
      }
    },
    {
      "type": "Feature",
      "id": "way/833393685",
      "properties": {
        "timestamp": "2023-10-27T10:18:27Z",
        "version": "3",
        "changeset": "143204355",
        "user": "ompatekar",
        "uid": "16275581",
        "access": "private",
        "highway": "service",
        "source": "digitalglobe",
        "id": "way/833393685"
      },
      "geometry": {
        "type": "LineString",
        "coordinates": [
          [
            80.2211525,
            12.8697562
          ],
          [
            80.221135,
            12.8696242
          ],
          [
            80.2211306,
            12.8696
          ],
          [
            80.221135,
            12.8695791
          ],
          [
            80.2211528,
            12.8695424
          ],
          [
            80.2211665,
            12.8695215
          ],
          [
            80.2211749,
            12.8695062
          ],
          [
            80.2211782,
            12.8694898
          ],
          [
            80.2211789,
            12.8694702
          ],
          [
            80.2211093,
            12.8691493
          ],
          [
            80.221079,
            12.86901
          ]
        ]
      }
    },
    {
      "type": "Feature",
      "id": "way/833393686",
      "properties": {
        "timestamp": "2025-12-02T09:53:04Z",
        "version": "4",
        "changeset": "175394255",
        "user": "shimshaola",
        "uid": "22355702",
        "access": "private",
        "highway": "service",
        "source": "digitalglobe",
        "id": "way/833393686"
      },
      "geometry": {
        "type": "LineString",
        "coordinates": [
          [
            80.2180105,
            12.8702063
          ],
          [
            80.2190762,
            12.8699856
          ],
          [
            80.2193928,
            12.8699294
          ],
          [
            80.2197145,
            12.8698724
          ],
          [
            80.219957,
            12.8698258
          ],
          [
            80.2211306,
            12.8696
          ]
        ]
      }
    },
    {
      "type": "Feature",
      "id": "way/833393687",
      "properties": {
        "timestamp": "2025-12-02T09:53:04Z",
        "version": "5",
        "changeset": "175394255",
        "user": "shimshaola",
        "uid": "22355702",
        "access": "private",
        "highway": "service",
        "source": "digitalglobe",
        "id": "way/833393687"
      },
      "geometry": {
        "type": "LineString",
        "coordinates": [
          [
            80.2180327,
            12.870378
          ],
          [
            80.2180105,
            12.8702063
          ],
          [
            80.217965,
            12.8698651
          ],
          [
            80.2178977,
            12.8694628
          ],
          [
            80.2178165,
            12.8689775
          ],
          [
            80.2178212,
            12.8687814
          ],
          [
            80.2177284,
            12.8683388
          ],
          [
            80.2176909,
            12.8681285
          ],
          [
            80.2176744,
            12.8680572
          ]
        ]
      }
    },
    {
      "type": "Feature",
      "id": "way/833398832",
      "properties": {
        "timestamp": "2023-10-27T10:18:27Z",
        "version": "2",
        "changeset": "143204355",
        "user": "ompatekar",
        "uid": "16275581",
        "access": "private",
        "highway": "service",
        "source": "digitalglobe",
        "id": "way/833398832"
      },
      "geometry": {
        "type": "LineString",
        "coordinates": [
          [
            80.2198747,
            12.8693983
          ],
          [
            80.2211093,
            12.8691493
          ]
        ]
      }
    },
    {
      "type": "Feature",
      "id": "way/833398833",
      "properties": {
        "timestamp": "2023-10-27T10:18:27Z",
        "version": "2",
        "changeset": "143204355",
        "user": "ompatekar",
        "uid": "16275581",
        "access": "private",
        "highway": "service",
        "source": "digitalglobe",
        "id": "way/833398833"
      },
      "geometry": {
        "type": "LineString",
        "coordinates": [
          [
            80.2198237,
            12.869095
          ],
          [
            80.2198747,
            12.8693983
          ],
          [
            80.219957,
            12.8698258
          ]
        ]
      }
    },
    {
      "type": "Feature",
      "id": "way/833398834",
      "properties": {
        "timestamp": "2023-10-27T10:18:27Z",
        "version": "2",
        "changeset": "143204355",
        "user": "ompatekar",
        "uid": "16275581",
        "access": "private",
        "highway": "service",
        "source": "digitalglobe",
        "id": "way/833398834"
      },
      "geometry": {
        "type": "LineString",
        "coordinates": [
          [
            80.2196628,
            12.8697029
          ],
          [
            80.2197145,
            12.8698724
          ],
          [
            80.2197426,
            12.870047
          ]
        ]
      }
    },
    {
      "type": "Feature",
      "id": "way/1067160236",
      "properties": {
        "timestamp": "2025-12-18T10:20:52Z",
        "version": "6",
        "changeset": "176087536",
        "user": "shimshaola",
        "uid": "22355702",
        "access": "private",
        "highway": "service",
        "id": "way/1067160236"
      },
      "geometry": {
        "type": "LineString",
        "coordinates": [
          [
            80.2196445,
            12.8704633
          ],
          [
            80.2196687,
            12.870584
          ],
          [
            80.2198643,
            12.8715594
          ],
          [
            80.2198882,
            12.8716784
          ],
          [
            80.2200576,
            12.8725229
          ]
        ]
      }
    },
    {
      "type": "Feature",
      "id": "way/1067904839",
      "properties": {
        "timestamp": "2025-12-02T10:20:22Z",
        "version": "3",
        "changeset": "175395461",
        "user": "shimshaola",
        "uid": "22355702",
        "access": "private",
        "highway": "service",
        "id": "way/1067904839"
      },
      "geometry": {
        "type": "LineString",
        "coordinates": [
          [
            80.2207388,
            12.8664772
          ],
          [
            80.2207984,
            12.8667382
          ],
          [
            80.2208878,
            12.8671375
          ],
          [
            80.2209153,
            12.8672618
          ],
          [
            80.2210917,
            12.8680565
          ],
          [
            80.2211174,
            12.8681721
          ],
          [
            80.2211392,
            12.8682711
          ],
          [
            80.2214158,
            12.8695273
          ]
        ]
      }
    },
    {
      "type": "Feature",
      "id": "way/1067904840",
      "properties": {
        "timestamp": "2023-10-27T10:18:27Z",
        "version": "2",
        "changeset": "143204355",
        "user": "ompatekar",
        "uid": "16275581",
        "access": "private",
        "highway": "service",
        "id": "way/1067904840"
      },
      "geometry": {
        "type": "LineString",
        "coordinates": [
          [
            80.2200041,
            12.8682863
          ],
          [
            80.2210917,
            12.8680565
          ]
        ]
      }
    },
    {
      "type": "Feature",
      "id": "way/1067904842",
      "properties": {
        "timestamp": "2023-10-27T10:18:27Z",
        "version": "2",
        "changeset": "143204355",
        "user": "ompatekar",
        "uid": "16275581",
        "access": "private",
        "highway": "service",
        "id": "way/1067904842"
      },
      "geometry": {
        "type": "LineString",
        "coordinates": [
          [
            80.2223892,
            12.8668222
          ],
          [
            80.2225966,
            12.8677293
          ],
          [
            80.2225984,
            12.8677794
          ],
          [
            80.2225824,
            12.8678277
          ],
          [
            80.2225577,
            12.8678604
          ],
          [
            80.2225116,
            12.8678846
          ],
          [
            80.2224232,
            12.8679053
          ],
          [
            80.2211174,
            12.8681721
          ]
        ]
      }
    },
    {
      "type": "Feature",
      "id": "way/1067922706",
      "properties": {
        "timestamp": "2026-02-01T06:13:55Z",
        "version": "2",
        "changeset": "177952047",
        "user": "Kanishka J P",
        "uid": "23772054",
        "name": "Lab block 1",
        "id": "way/1067922706"
      },
      "geometry": {
        "type": "LineString",
        "coordinates": [
          [
            80.219988,
            12.8695396
          ],
          [
            80.2199686,
            12.8694337
          ],
          [
            80.2210749,
            12.8692145
          ],
          [
            80.2211295,
            12.8694847
          ],
          [
            80.2200202,
            12.8697035
          ],
          [
            80.2200001,
            12.8695957
          ]
        ]
      }
    },
    {
      "type": "Feature",
      "id": "way/1191344564",
      "properties": {
        "timestamp": "2025-12-02T09:53:04Z",
        "version": "2",
        "changeset": "175394255",
        "user": "shimshaola",
        "uid": "22355702",
        "access": "private",
        "highway": "service",
        "id": "way/1191344564"
      },
      "geometry": {
        "type": "LineString",
        "coordinates": [
          [
            80.2176572,
            12.8704497
          ],
          [
            80.2176198,
            12.8702956
          ],
          [
            80.2176156,
            12.8702092
          ]
        ]
      }
    },
    {
      "type": "Feature",
      "id": "way/1341868616",
      "properties": {
        "timestamp": "2025-12-02T09:53:04Z",
        "version": "2",
        "changeset": "175394255",
        "user": "shimshaola",
        "uid": "22355702",
        "access": "private",
        "highway": "service",
        "id": "way/1341868616"
      },
      "geometry": {
        "type": "LineString",
        "coordinates": [
          [
            80.2173273,
            12.8690292
          ],
          [
            80.2176878,
            12.8689346
          ]
        ]
      }
    },
    {
      "type": "Feature",
      "id": "way/1455413449",
      "properties": {
        "timestamp": "2025-12-02T09:53:04Z",
        "version": "1",
        "changeset": "175394255",
        "user": "shimshaola",
        "uid": "22355702",
        "access": "private",
        "highway": "service",
        "id": "way/1455413449"
      },
      "geometry": {
        "type": "LineString",
        "coordinates": [
          [
            80.2209995,
            12.8699707
          ],
          [
            80.2209572,
            12.8697978
          ]
        ]
      }
    },
    {
      "type": "Feature",
      "id": "way/1455413450",
      "properties": {
        "timestamp": "2025-12-02T09:53:04Z",
        "version": "1",
        "changeset": "175394255",
        "user": "shimshaola",
        "uid": "22355702",
        "access": "private",
        "highway": "service",
        "id": "way/1455413450"
      },
      "geometry": {
        "type": "LineString",
        "coordinates": [
          [
            80.217692,
            12.8706175
          ],
          [
            80.2176572,
            12.8704497
          ]
        ]
      }
    },
    {
      "type": "Feature",
      "id": "way/1455413451",
      "properties": {
        "timestamp": "2025-12-02T09:53:04Z",
        "version": "1",
        "changeset": "175394255",
        "user": "shimshaola",
        "uid": "22355702",
        "access": "private",
        "highway": "service",
        "id": "way/1455413451"
      },
      "geometry": {
        "type": "LineString",
        "coordinates": [
          [
            80.2176156,
            12.8702092
          ],
          [
            80.2176806,
            12.8701844
          ],
          [
            80.2178235,
            12.8701593
          ]
        ]
      }
    },
    {
      "type": "Feature",
      "id": "way/1455413467",
      "properties": {
        "timestamp": "2025-12-02T09:53:04Z",
        "version": "1",
        "changeset": "175394255",
        "user": "shimshaola",
        "uid": "22355702",
        "access": "private",
        "highway": "service",
        "source": "digitalglobe",
        "id": "way/1455413467"
      },
      "geometry": {
        "type": "LineString",
        "coordinates": [
          [
            80.217678,
            12.8678512
          ],
          [
            80.2182049,
            12.8677886
          ],
          [
            80.218969,
            12.867689
          ]
        ]
      }
    },
    {
      "type": "Feature",
      "id": "way/1455413468",
      "properties": {
        "timestamp": "2026-02-01T06:13:55Z",
        "version": "2",
        "changeset": "177952047",
        "user": "Kanishka J P",
        "uid": "23772054",
        "access": "private",
        "highway": "service",
        "id": "way/1455413468"
      },
      "geometry": {
        "type": "LineString",
        "coordinates": [
          [
            80.2178165,
            12.8689775
          ],
          [
            80.2177435,
            12.8687795
          ],
          [
            80.2176542,
            12.868443
          ],
          [
            80.2175603,
            12.867963
          ],
          [
            80.217678,
            12.8678512
          ]
        ]
      }
    },
    {
      "type": "Feature",
      "id": "way/1455413469",
      "properties": {
        "timestamp": "2025-12-02T09:53:04Z",
        "version": "1",
        "changeset": "175394255",
        "user": "shimshaola",
        "uid": "22355702",
        "access": "private",
        "highway": "service",
        "id": "way/1455413469"
      },
      "geometry": {
        "type": "LineString",
        "coordinates": [
          [
            80.2178977,
            12.8694628
          ],
          [
            80.2192444,
            12.8692149
          ]
        ]
      }
    },
    {
      "type": "Feature",
      "id": "way/1455413470",
      "properties": {
        "timestamp": "2025-12-02T09:53:04Z",
        "version": "1",
        "changeset": "175394255",
        "user": "shimshaola",
        "uid": "22355702",
        "access": "private",
        "highway": "service",
        "id": "way/1455413470"
      },
      "geometry": {
        "type": "LineString",
        "coordinates": [
          [
            80.2193928,
            12.8699294
          ],
          [
            80.2192444,
            12.8692149
          ]
        ]
      }
    },
    {
      "type": "Feature",
      "id": "way/1455413471",
      "properties": {
        "timestamp": "2025-12-02T09:53:04Z",
        "version": "1",
        "changeset": "175394255",
        "user": "shimshaola",
        "uid": "22355702",
        "access": "private",
        "highway": "service",
        "id": "way/1455413471"
      },
      "geometry": {
        "type": "LineString",
        "coordinates": [
          [
            80.2192444,
            12.8692149
          ],
          [
            80.219119,
            12.8685289
          ]
        ]
      }
    },
    {
      "type": "Feature",
      "id": "way/1455413472",
      "properties": {
        "timestamp": "2025-12-02T09:53:04Z",
        "version": "1",
        "changeset": "175394255",
        "user": "shimshaola",
        "uid": "22355702",
        "access": "private",
        "highway": "service",
        "id": "way/1455413472"
      },
      "geometry": {
        "type": "LineString",
        "coordinates": [
          [
            80.219119,
            12.8685289
          ],
          [
            80.218969,
            12.867689
          ]
        ]
      }
    },
    {
      "type": "Feature",
      "id": "way/1455413473",
      "properties": {
        "timestamp": "2025-12-02T09:53:04Z",
        "version": "1",
        "changeset": "175394255",
        "user": "shimshaola",
        "uid": "22355702",
        "access": "private",
        "highway": "service",
        "id": "way/1455413473"
      },
      "geometry": {
        "type": "LineString",
        "coordinates": [
          [
            80.2178212,
            12.8687814
          ],
          [
            80.2188674,
            12.8685781
          ]
        ]
      }
    },
    {
      "type": "Feature",
      "id": "way/1455413474",
      "properties": {
        "timestamp": "2025-12-02T09:53:04Z",
        "version": "1",
        "changeset": "175394255",
        "user": "shimshaola",
        "uid": "22355702",
        "access": "private",
        "highway": "service",
        "id": "way/1455413474"
      },
      "geometry": {
        "type": "LineString",
        "coordinates": [
          [
            80.2166906,
            12.8674157
          ],
          [
            80.2175333,
            12.8672296
          ],
          [
            80.2176034,
            12.8672159
          ],
          [
            80.2176335,
            12.8672373
          ],
          [
            80.2176469,
            12.8672791
          ],
          [
            80.217678,
            12.8678512
          ]
        ]
      }
    },
    {
      "type": "Feature",
      "id": "way/1455418452",
      "properties": {
        "timestamp": "2025-12-02T10:20:22Z",
        "version": "1",
        "changeset": "175395461",
        "user": "shimshaola",
        "uid": "22355702",
        "access": "private",
        "highway": "service",
        "id": "way/1455418452"
      },
      "geometry": {
        "type": "LineString",
        "coordinates": [
          [
            80.2211392,
            12.8682711
          ],
          [
            80.2204453,
            12.8684103
          ]
        ]
      }
    },
    {
      "type": "Feature",
      "id": "way/1544565332",
      "properties": {
        "timestamp": "2026-07-25T13:53:09Z",
        "version": "1",
        "changeset": "186347808",
        "user": "Hash_96",
        "uid": "24054998",
        "highway": "service",
        "service": "parking_aisle",
        "id": "way/1544565332"
      },
      "geometry": {
        "type": "LineString",
        "coordinates": [
          [
            80.2178211,
            12.870699
          ],
          [
            80.2182332,
            12.8706129
          ],
          [
            80.2189765,
            12.8704408
          ]
        ]
      }
    },
    {
      "type": "Feature",
      "id": "node/11292921403",
      "properties": {
        "timestamp": "2025-12-02T09:53:04Z",
        "version": "3",
        "changeset": "175394255",
        "user": "shimshaola",
        "uid": "22355702",
        "access": "permit",
        "barrier": "gate",
        "description": "sjce main gate",
        "locked": "no",
        "id": "node/11292921403"
      },
      "geometry": {
        "type": "Point",
        "coordinates": [
          80.2260872,
          12.8703382
        ]
      }
    },
    {
      "type": "Feature",
      "id": "node/11292921404",
      "properties": {
        "timestamp": "2023-10-27T10:18:27Z",
        "version": "1",
        "changeset": "143204355",
        "user": "ompatekar",
        "uid": "16275581",
        "access": "private",
        "barrier": "gate",
        "id": "node/11292921404"
      },
      "geometry": {
        "type": "Point",
        "coordinates": [
          80.2260736,
          12.8702157
        ]
      }
    },
    {
      "type": "Feature",
      "id": "node/14049135038",
      "properties": {
        "timestamp": "2026-07-25T13:53:09Z",
        "version": "1",
        "changeset": "186347808",
        "user": "Hash_96",
        "uid": "24054998",
        "access": "yes",
        "amenity": "motorcycle_parking",
        "covered": "no",
        "surface": "concrete",
        "id": "node/14049135038"
      },
      "geometry": {
        "type": "Point",
        "coordinates": [
          80.2182332,
          12.8706129
        ]
      }
    },
    {
      "type": "Feature",
      "id": "node/14049135041",
      "properties": {
        "timestamp": "2026-07-25T13:53:09Z",
        "version": "1",
        "changeset": "186347808",
        "user": "Hash_96",
        "uid": "24054998",
        "barrier": "gate",
        "foot": "permit",
        "material": "metal",
        "wheelchair": "yes",
        "id": "node/14049135041"
      },
      "geometry": {
        "type": "Point",
        "coordinates": [
          80.2176203,
          12.8704543
        ]
      }
    }
  ]
}