{
  "type": "FeatureCollection",
  "features": [
    {
      "type": "Feature",
      "id": "relation/14231351",
      "properties": {
        "timestamp": "2026-02-01T06:13:55Z",
        "version": "4",
        "changeset": "177952047",
        "user": "Kanishka J P",
        "uid": "23772054",
        "building": "university",
        "name": "Lab Block 2",
        "type": "multipolygon",
        "id": "relation/14231351"
      },
      "geometry": {
        "type": "Polygon",
        "coordinates": [
          [
            [
              80.2202923,
              12.8691575
            ],
            [
              80.2202823,
              12.8691039
            ],
            [
              80.2202598,
              12.8689906
            ],
            [
              80.2209959,
              12.8688432
            ],
            [
              80.2210609,
              12.8691246
            ],
            [
              80.2204681,
              12.8692422
            ],
            [
              80.2203173,
              12.8692721
            ],
            [
              80.2202923,
              12.8691575
            ]
          ],
          [
            [
              80.2207253,
              12.8690693
            ],
            [
              80.2209797,
              12.8690174
            ],
            [
              80.2209684,
              12.8689687
            ],
            [
              80.2208414,
              12.8689938
            ],
            [
              80.2207143,
              12.8690188
            ],
            [
              80.2207253,
              12.8690693
            ]
          ],
          [
            [
              80.2203504,
              12.8691457
            ],
            [
              80.2206688,
              12.8690808
            ],
            [
              80.2206575,
              12.86903
            ],
            [
              80.2203395,
              12.8690926
            ],
            [
              80.2203504,
              12.8691457
            ]
          ]
        ]
      }
    },
    {
      "type": "Feature",
      "id": "relation/14231352",
      "properties": {
        "timestamp": "2026-04-18T10:57:01Z",
        "version": "3",
        "changeset": "181493048",
        "user": "syedjaferk",
        "uid": "19820049",
        "building": "university",
        "building:levels": "3",
        "name": "IT CSE Lab, St Joseph's Institute of Technology",
        "note": "Lab Area of St. Joseph's IT & CSE",
        "type": "multipolygon",
        "id": "relation/14231352"
      },
      "geometry": {
        "type": "Polygon",
        "coordinates": [
          [
            [
              80.2200001,
              12.8695957
            ],
            [
              80.219988,
              12.8695396
            ],
            [
              80.2199686,
              12.8694337
            ],
            [
              80.2210749,
              12.8692145
            ],
            [
              80.2211295,
              12.8694847
            ],
            [
              80.2200202,
              12.8697035
            ],
            [
              80.2200001,
              12.8695957
            ]
          ],
          [
            [
              80.2203619,
              12.8694662
            ],
            [
              80.2201546,
              12.8695069
            ],
            [
              80.2200498,
              12.8695275
            ],
            [
              80.220063,
              12.8695834
            ],
            [
              80.2203713,
              12.869523
            ],
            [
              80.2203619,
              12.8694662
            ]
          ],
          [
            [
              80.2208044,
              12.869438
            ],
            [
              80.2210609,
              12.8693878
            ],
            [
              80.2210465,
              12.8693318
            ],
            [
              80.2207943,
              12.8693813
            ],
            [
              80.2208044,
              12.869438
            ]
          ],
          [
            [
              80.2204326,
              12.8695109
            ],
            [
              80.2207419,
              12.8694503
            ],
            [
              80.2207305,
              12.8693938
            ],
            [
              80.2204208,
              12.8694546
            ],
            [
              80.2204326,
              12.8695109
            ]
          ]
        ]
      }
    },
    {
      "type": "Feature",
      "id": "relation/14231353",
      "properties": {
        "timestamp": "2026-06-13T08:40:55Z",
        "version": "7",
        "changeset": "184046403",
        "user": "Thiru Blue Star",
        "uid": "23820566",
        "building": "university",
        "name": "Classroom Block",
        "type": "multipolygon",
        "id": "relation/14231353"
      },
      "geometry": {
        "type": "Polygon",
        "coordinates": [
          [
            [
              80.2181595,
              12.8698929
            ],
            [
              80.2181331,
              12.8697782
            ],
            [
              80.2187128,
              12.8696674
            ],
            [
              80.2192925,
              12.8695566
            ],
            [
              80.219326,
              12.8697188
            ],
            [
              80.2193474,
              12.8698225
            ],
            [
              80.2181924,
              12.8700585
            ],
            [
              80.2181682,
              12.869954
            ],
            [
              80.2181595,
              12.8698929
            ]
          ],
          [
            [
              80.2188985,
              12.869749
            ],
            [
              80.2185255,
              12.8698215
            ],
            [
              80.2185379,
              12.8698806
            ],
            [
              80.2189089,
              12.8698073
            ],
            [
              80.2188985,
              12.869749
            ]
          ],
          [
            [
              80.218962,
              12.8697968
            ],
            [
              80.2192808,
              12.8697338
            ],
            [
              80.219266,
              12.8696775
            ],
            [
              80.2189496,
              12.8697391
            ],
            [
              80.218962,
              12.8697968
            ]
          ],
          [
            [
              80.2182273,
              12.8699419
            ],
            [
              80.2184825,
              12.8698915
            ],
            [
              80.2184728,
              12.8698318
            ],
            [
              80.2182146,
              12.869882
            ],
            [
              80.2182273,
              12.8699419
            ]
          ]
        ]
      }
    },
    {
      "type": "Feature",
      "id": "way/509668153",
      "properties": {
        "timestamp": "2026-06-13T08:40:55Z",
        "version": "9",
        "changeset": "184046403",
        "user": "Thiru Blue Star",
        "uid": "23820566",
        "amenity": "college",
        "internet_access": "wired",
        "name": "St Joseph's Institute of Technology",
        "operator": "Anna University",
        "phone": "044 2450 3132",
        "website": "https://stjosephstechnology.ac.in/web/index.html",
        "id": "way/509668153"
      },
      "geometry": {
        "type": "Polygon",
        "coordinates": [
          [
            [
              80.2179847,
              12.8703574
            ],
            [
              80.2173935,
              12.8704819
            ],
            [
              80.2174495,
              12.8703753
            ],
            [
              80.2174824,
              12.8702794
            ],
            [
              80.21749,
              12.8702573
            ],
            [
              80.2175063,
              12.8701727
            ],
            [
              80.2174981,
              12.8700362
            ],
            [
              80.2174868,
              12.8698998
            ],
            [
              80.2175113,
              12.8697621
            ],
            [
              80.2175736,
              12.8695876
            ],
            [
              80.2176492,
              12.8694282
            ],
            [
              80.2177854,
              12.8691803
            ],
            [
              80.2177659,
              12.8688908
            ],
            [
              80.2176959,
              12.8687619
            ],
            [
              80.2176118,
              12.8686547
            ],
            [
              80.2175177,
              12.8685931
            ],
            [
              80.2173704,
              12.8685324
            ],
            [
              80.2172416,
              12.8684712
            ],
            [
              80.2171272,
              12.8683854
            ],
            [
              80.2170355,
              12.8682899
            ],
            [
              80.2169534,
              12.8681283
            ],
            [
              80.2169172,
              12.8680065
            ],
            [
              80.2167912,
              12.8674212
            ],
            [
              80.2166784,
              12.8673723
            ],
            [
              80.2164808,
              12.8664653
            ],
            [
              80.2162378,
              12.8665139
            ],
            [
              80.2161159,
              12.8659692
            ],
            [
              80.2145619,
              12.8663069
            ],
            [
              80.2144772,
              12.8658962
            ],
            [
              80.2157279,
              12.8656828
            ],
            [
              80.2156703,
              12.8653987
            ],
            [
              80.2147566,
              12.8654668
            ],
            [
              80.2147075,
              12.8643969
            ],
            [
              80.2165697,
              12.8642337
            ],
            [
              80.2165717,
              12.8636831
            ],
            [
              80.2168332,
              12.8636804
            ],
            [
              80.217216,
              12.8649142
            ],
            [
              80.217512,
              12.8662714
            ],
            [
              80.2172946,
              12.8662749
            ],
            [
              80.2165584,
              12.8662868
            ],
            [
              80.216674,
              12.8668463
            ],
            [
              80.2171434,
              12.8667598
            ],
            [
              80.2171737,
              12.8668554
            ],
            [
              80.2181357,
              12.8667696
            ],
            [
              80.2180856,
              12.8676021
            ],
            [
              80.218912,
              12.8674296
            ],
            [
              80.2189683,
              12.8676517
            ],
            [
              80.2194505,
              12.867545
            ],
            [
              80.2196436,
              12.8683351
            ],
            [
              80.2197816,
              12.8683058
            ],
            [
              80.2197986,
              12.8683975
            ],
            [
              80.2201023,
              12.8684531
            ],
            [
              80.2200855,
              12.8685445
            ],
            [
              80.2212194,
              12.8688026
            ],
            [
              80.2213977,
              12.8696753
            ],
            [
              80.220111,
              12.8699247
            ],
            [
              80.2195404,
              12.8700401
            ],
            [
              80.2185914,
              12.8702351
            ],
            [
              80.2179847,
              12.8703574
            ]
          ]
        ]
      }
    },
    {
      "type": "Feature",
      "id": "way/1067566332",
      "properties": {
        "timestamp": "2022-06-07T11:26:10Z",
        "version": "1",
        "changeset": "122067843",
        "user": "user_14062769",
        "uid": "14062769",
        "building": "yes",
        "source": "microsoft/BuildingFootprints",
        "id": "way/1067566332"
      },
      "geometry": {
        "type": "Polygon",
        "coordinates": [
          [
            [
              80.2182356,
              12.8675777
            ],
            [
              80.2186448,
              12.8675145
            ],
            [
              80.2186734,
              12.8676905
            ],
            [
              80.2182642,
              12.8677537
            ],
            [
              80.2182356,
              12.8675777
            ]
          ]
        ]
      }
    },
    {
      "type": "Feature",
      "id": "way/1067922692",
      "properties": {
        "timestamp": "2026-06-13T08:40:55Z",
        "version": "3",
        "changeset": "184046403",
        "user": "Thiru Blue Star",
        "uid": "23820566",
        "building": "dormitory",
        "name": "Girls Hostel",
        "id": "way/1067922692"
      },
      "geometry": {
        "type": "Polygon",
        "coordinates": [
          [
            [
              80.2178065,
              12.8681632
            ],
            [
              80.2186627,
              12.8684125
            ],
            [
              80.2186506,
              12.868589
            ],
            [
              80.2179158,
              12.8687391
            ],
            [
              80.2178065,
              12.8681632
            ]
          ]
        ]
      }
    },
    {
      "type": "Feature",
      "id": "way/1067922693",
      "properties": {
        "timestamp": "2026-02-01T06:13:55Z",
        "version": "2",
        "changeset": "177952047",
        "user": "Kanishka J P",
        "uid": "23772054",
        "building": "university",
        "name": "Mess",
        "id": "way/1067922693"
      },
      "geometry": {
        "type": "Polygon",
        "coordinates": [
          [
            [
              80.2179089,
              12.8688085
            ],
            [
              80.2189087,
              12.8686136
            ],
            [
              80.2190212,
              12.8691838
            ],
            [
              80.2180214,
              12.8693787
            ],
            [
              80.2179089,
              12.8688085
            ]
          ]
        ]
      }
    },
    {
      "type": "Feature",
      "id": "way/1067922694",
      "properties": {
        "timestamp": "2022-06-08T14:38:19Z",
        "version": "1",
        "changeset": "122121812",
        "user": "vaibhavnz",
        "uid": "4164103",
        "building": "university",
        "id": "way/1067922694"
      },
      "geometry": {
        "type": "Polygon",
        "coordinates": [
          [
            [
              80.2200855,
              12.8685445
            ],
            [
              80.2197759,
              12.8684943
            ],
            [
              80.2197802,
              12.8684845
            ],
            [
              80.2196697,
              12.8684719
            ],
            [
              80.2196436,
              12.8683351
            ],
            [
              80.2197816,
              12.8683058
            ],
            [
              80.2197986,
              12.8683975
            ],
            [
              80.2201023,
              12.8684531
            ],
            [
              80.2200855,
              12.8685445
            ]
          ]
        ]
      }
    },
    {
      "type": "Feature",
      "id": "way/1067922695",
      "properties": {
        "timestamp": "2026-06-13T08:40:55Z",
        "version": "3",
        "changeset": "184046403",
        "user": "Thiru Blue Star",
        "uid": "23820566",
        "building": "dormitory",
        "name": "Boys Hostel",
        "id": "way/1067922695"
      },
      "geometry": {
        "type": "Polygon",
        "coordinates": [
          [
            [
              80.2191875,
              12.8685705
            ],
            [
              80.2204151,
              12.868683
            ],
            [
              80.2204797,
              12.8686921
            ],
            [
              80.220512,
              12.8687159
            ],
            [
              80.2205293,
              12.8687642
            ],
            [
              80.2205336,
              12.8688244
            ],
            [
              80.2205242,
              12.8688517
            ],
            [
              80.2204876,
              12.8688755
            ],
            [
              80.2204079,
              12.8688944
            ],
            [
              80.219866,
              12.8689902
            ],
            [
              80.2198498,
              12.8688997
            ],
            [
              80.2192747,
              12.8690045
            ],
            [
              80.2191875,
              12.8685705
            ]
          ]
        ]
      }
    },
    {
      "type": "Feature",
      "id": "way/1067922696",
      "properties": {
        "timestamp": "2026-04-18T11:20:22Z",
        "version": "3",
        "changeset": "181493827",
        "user": "syedjaferk",
        "uid": "19820049",
        "building": "university",
        "building:levels": "4",
        "name": "Admin Block and Placement Office",
        "id": "way/1067922696"
      },
      "geometry": {
        "type": "Polygon",
        "coordinates": [
          [
            [
              80.2193213,
              12.8690759
            ],
            [
              80.2197679,
              12.8689925
            ],
            [
              80.219767,
              12.8689824
            ],
            [
              80.21982,
              12.8689731
            ],
            [
              80.2198427,
              12.869071
            ],
            [
              80.2197925,
              12.8690802
            ],
            [
              80.2198886,
              12.8695635
            ],
            [
              80.2194375,
              12.8696513
            ],
            [
              80.2193213,
              12.8690759
            ]
          ]
        ]
      }
    },
    {
      "type": "Feature",
      "id": "way/1067922697",
      "properties": {
        "timestamp": "2022-06-08T14:38:19Z",
        "version": "1",
        "changeset": "122121812",
        "user": "vaibhavnz",
        "uid": "4164103",
        "building": "university",
        "id": "way/1067922697"
      },
      "geometry": {
        "type": "Polygon",
        "coordinates": [
          [
            [
              80.2210988,
              12.8689617
            ],
            [
              80.2212153,
              12.8689367
            ],
            [
              80.2212427,
              12.8690752
            ],
            [
              80.2211272,
              12.8690983
            ],
            [
              80.2210988,
              12.8689617
            ]
          ]
        ]
      }
    },
    {
      "type": "Feature",
      "id": "way/1500711220",
      "properties": {
        "timestamp": "2026-04-18T10:59:57Z",
        "version": "1",
        "changeset": "181493141",
        "user": "syedjaferk",
        "uid": "19820049",
        "landuse": "commercial",
        "name": "St. Joseph's Institute of Technology Bus Bay",
        "id": "way/1500711220"
      },
      "geometry": {
        "type": "Polygon",
        "coordinates": [
          [
            [
              80.2191453,
              12.8683586
            ],
            [
              80.2190055,
              12.8676895
            ],
            [
              80.2194248,
              12.867597
            ],
            [
              80.2195845,
              12.8684364
            ],
            [
              80.2191453,
              12.8683586
            ]
          ]
        ]
      }
    },
    {
      "type": "Feature",
      "id": "way/833393685",
      "properties": {
        "timestamp": "2023-10-27T10:18:27Z",
        "version": "3",
        "changeset": "143204355",
        "user": "ompatekar",
        "uid": "16275581",
        "access": "private",
        "highway": "service",
        "source": "digitalglobe",
        "id": "way/833393685"
      },
      "geometry": {
        "type": "LineString",
        "coordinates": [
          [
            80.2211525,
            12.8697562
          ],
          [
            80.221135,
            12.8696242
          ],
          [
            80.2211306,
            12.8696
          ],
          [
            80.221135,
            12.8695791
          ],
          [
            80.2211528,
            12.8695424
          ],
          [
            80.2211665,
            12.8695215
          ],
          [
            80.2211749,
            12.8695062
          ],
          [
            80.2211782,
            12.8694898
          ],
          [
            80.2211789,
            12.8694702
          ],
          [
            80.2211093,
            12.8691493
          ],
          [
            80.221079,
            12.86901
          ]
        ]
      }
    },
    {
      "type": "Feature",
      "id": "way/833393686",
      "properties": {
        "timestamp": "2025-12-02T09:53:04Z",
        "version": "4",
        "changeset": "175394255",
        "user": "shimshaola",
        "uid": "22355702",
        "access": "private",
        "highway": "service",
        "source": "digitalglobe",
        "id": "way/833393686"
      },
      "geometry": {
        "type": "LineString",
        "coordinates": [
          [
            80.2180105,
            12.8702063
          ],
          [
            80.2190762,
            12.8699856
          ],
          [
            80.2193928,
            12.8699294
          ],
          [
            80.2197145,
            12.8698724
          ],
          [
            80.219957,
            12.8698258
          ],
          [
            80.2211306,
            12.8696
          ]
        ]
      }
    },
    {
      "type": "Feature",
      "id": "way/833393687",
      "properties": {
        "timestamp": "2025-12-02T09:53:04Z",
        "version": "5",
        "changeset": "175394255",
        "user": "shimshaola",
        "uid": "22355702",
        "access": "private",
        "highway": "service",
        "source": "digitalglobe",
        "id": "way/833393687"
      },
      "geometry": {
        "type": "LineString",
        "coordinates": [
          [
            80.2180327,
            12.870378
          ],
          [
            80.2180105,
            12.8702063
          ],
          [
            80.217965,
            12.8698651
          ],
          [
            80.2178977,
            12.8694628
          ],
          [
            80.2178165,
            12.8689775
          ],
          [
            80.2178212,
            12.8687814
          ],
          [
            80.2177284,
            12.8683388
          ],
          [
            80.2176909,
            12.8681285
          ],
          [
            80.2176744,
            12.8680572
          ]
        ]
      }
    },
    {
      "type": "Feature",
      "id": "way/833398832",
      "properties": {
        "timestamp": "2023-10-27T10:18:27Z",
        "version": "2",
        "changeset": "143204355",
        "user": "ompatekar",
        "uid": "16275581",
        "access": "private",
        "highway": "service",
        "source": "digitalglobe",
        "id": "way/833398832"
      },
      "geometry": {
        "type": "LineString",
        "coordinates": [
          [
            80.2198747,
            12.8693983
          ],
          [
            80.2211093,
            12.8691493
          ]
        ]
      }
    },
    {
      "type": "Feature",
      "id": "way/833398833",
      "properties": {
        "timestamp": "2023-10-27T10:18:27Z",
        "version": "2",
        "changeset": "143204355",
        "user": "ompatekar",
        "uid": "16275581",
        "access": "private",
        "highway": "service",
        "source": "digitalglobe",
        "id": "way/833398833"
      },
      "geometry": {
        "type": "LineString",
        "coordinates": [
          [
            80.2198237,
            12.869095
          ],
          [
            80.2198747,
            12.8693983
          ],
          [
            80.219957,
            12.8698258
          ]
        ]
      }
    },
    {
      "type": "Feature",
      "id": "way/833398834",
      "properties": {
        "timestamp": "2023-10-27T10:18:27Z",
        "version": "2",
        "changeset": "143204355",
        "user": "ompatekar",
        "uid": "16275581",
        "access": "private",
        "highway": "service",
        "source": "digitalglobe",
        "id": "way/833398834"
      },
      "geometry": {
        "type": "LineString",
        "coordinates": [
          [
            80.2196628,
            12.8697029
          ],
          [
            80.2197145,
            12.8698724
          ],
          [
            80.2197426,
            12.870047
          ]
        ]
      }
    },
    {
      "type": "Feature",
      "id": "way/1067922706",
      "properties": {
        "timestamp": "2026-02-01T06:13:55Z",
        "version": "2",
        "changeset": "177952047",
        "user": "Kanishka J P",
        "uid": "23772054",
        "name": "Lab block 1",
        "id": "way/1067922706"
      },
      "geometry": {
        "type": "LineString",
        "coordinates": [
          [
            80.219988,
            12.8695396
          ],
          [
            80.2199686,
            12.8694337
          ],
          [
            80.2210749,
            12.8692145
          ],
          [
            80.2211295,
            12.8694847
          ],
          [
            80.2200202,
            12.8697035
          ],
          [
            80.2200001,
            12.8695957
          ]
        ]
      }
    },
    {
      "type": "Feature",
      "id": "way/1191344564",
      "properties": {
        "timestamp": "2025-12-02T09:53:04Z",
        "version": "2",
        "changeset": "175394255",
        "user": "shimshaola",
        "uid": "22355702",
        "access": "private",
        "highway": "service",
        "id": "way/1191344564"
      },
      "geometry": {
        "type": "LineString",
        "coordinates": [
          [
            80.2176572,
            12.8704497
          ],
          [
            80.2176198,
            12.8702956
          ],
          [
            80.2176156,
            12.8702092
          ]
        ]
      }
    },
    {
      "type": "Feature",
      "id": "way/1455413451",
      "properties": {
        "timestamp": "2025-12-02T09:53:04Z",
        "version": "1",
        "changeset": "175394255",
        "user": "shimshaola",
        "uid": "22355702",
        "access": "private",
        "highway": "service",
        "id": "way/1455413451"
      },
      "geometry": {
        "type": "LineString",
        "coordinates": [
          [
            80.2176156,
            12.8702092
          ],
          [
            80.2176806,
            12.8701844
          ],
          [
            80.2178235,
            12.8701593
          ]
        ]
      }
    },
    {
      "type": "Feature",
      "id": "way/1455413467",
      "properties": {
        "timestamp": "2025-12-02T09:53:04Z",
        "version": "1",
        "changeset": "175394255",
        "user": "shimshaola",
        "uid": "22355702",
        "access": "private",
        "highway": "service",
        "source": "digitalglobe",
        "id": "way/1455413467"
      },
      "geometry": {
        "type": "LineString",
        "coordinates": [
          [
            80.217678,
            12.8678512
          ],
          [
            80.2182049,
            12.8677886
          ],
          [
            80.218969,
            12.867689
          ]
        ]
      }
    },
    {
      "type": "Feature",
      "id": "way/1455413468",
      "properties": {
        "timestamp": "2026-02-01T06:13:55Z",
        "version": "2",
        "changeset": "177952047",
        "user": "Kanishka J P",
        "uid": "23772054",
        "access": "private",
        "highway": "service",
        "id": "way/1455413468"
      },
      "geometry": {
        "type": "LineString",
        "coordinates": [
          [
            80.2178165,
            12.8689775
          ],
          [
            80.2177435,
            12.8687795
          ],
          [
            80.2176542,
            12.868443
          ],
          [
            80.2175603,
            12.867963
          ],
          [
            80.217678,
            12.8678512
          ]
        ]
      }
    },
    {
      "type": "Feature",
      "id": "way/1455413469",
      "properties": {
        "timestamp": "2025-12-02T09:53:04Z",
        "version": "1",
        "changeset": "175394255",
        "user": "shimshaola",
        "uid": "22355702",
        "access": "private",
        "highway": "service",
        "id": "way/1455413469"
      },
      "geometry": {
        "type": "LineString",
        "coordinates": [
          [
            80.2178977,
            12.8694628
          ],
          [
            80.2192444,
            12.8692149
          ]
        ]
      }
    },
    {
      "type": "Feature",
      "id": "way/1455413470",
      "properties": {
        "timestamp": "2025-12-02T09:53:04Z",
        "version": "1",
        "changeset": "175394255",
        "user": "shimshaola",
        "uid": "22355702",
        "access": "private",
        "highway": "service",
        "id": "way/1455413470"
      },
      "geometry": {
        "type": "LineString",
        "coordinates": [
          [
            80.2193928,
            12.8699294
          ],
          [
            80.2192444,
            12.8692149
          ]
        ]
      }
    },
    {
      "type": "Feature",
      "id": "way/1455413471",
      "properties": {
        "timestamp": "2025-12-02T09:53:04Z",
        "version": "1",
        "changeset": "175394255",
        "user": "shimshaola",
        "uid": "22355702",
        "access": "private",
        "highway": "service",
        "id": "way/1455413471"
      },
      "geometry": {
        "type": "LineString",
        "coordinates": [
          [
            80.2192444,
            12.8692149
          ],
          [
            80.219119,
            12.8685289
          ]
        ]
      }
    },
    {
      "type": "Feature",
      "id": "way/1455413472",
      "properties": {
        "timestamp": "2025-12-02T09:53:04Z",
        "version": "1",
        "changeset": "175394255",
        "user": "shimshaola",
        "uid": "22355702",
        "access": "private",
        "highway": "service",
        "id": "way/1455413472"
      },
      "geometry": {
        "type": "LineString",
        "coordinates": [
          [
            80.219119,
            12.8685289
          ],
          [
            80.218969,
            12.867689
          ]
        ]
      }
    },
    {
      "type": "Feature",
      "id": "way/1455413473",
      "properties": {
        "timestamp": "2025-12-02T09:53:04Z",
        "version": "1",
        "changeset": "175394255",
        "user": "shimshaola",
        "uid": "22355702",
        "access": "private",
        "highway": "service",
        "id": "way/1455413473"
      },
      "geometry": {
        "type": "LineString",
        "coordinates": [
          [
            80.2178212,
            12.8687814
          ],
          [
            80.2188674,
            12.8685781
          ]
        ]
      }
    },
    {
      "type": "Feature",
      "id": "way/1455413474",
      "properties": {
        "timestamp": "2025-12-02T09:53:04Z",
        "version": "1",
        "changeset": "175394255",
        "user": "shimshaola",
        "uid": "22355702",
        "access": "private",
        "highway": "service",
        "id": "way/1455413474"
      },
      "geometry": {
        "type": "LineString",
        "coordinates": [
          [
            80.2166906,
            12.8674157
          ],
          [
            80.2175333,
            12.8672296
          ],
          [
            80.2176034,
            12.8672159
          ],
          [
            80.2176335,
            12.8672373
          ],
          [
            80.2176469,
            12.8672791
          ],
          [
            80.217678,
            12.8678512
          ]
        ]
      }
    }
  ]
}